[{"OBJECT_NAME":"STARLINK-34475","OBJECT_ID":"2025-137K","EPOCH":"2026-03-09T22:43:40.464768","MEAN_MOTION":15.30214064,"ECCENTRICITY":0.00010066,"INCLINATION":53.1596,"RA_OF_ASC_NODE":334.0867,"ARG_OF_PERICENTER":128.107,"MEAN_ANOMALY":232.0022,"EPHEMERIS_TYPE":0,"CLASSIFICATION_TYPE":"U","NORAD_CAT_ID":64603,"ELEMENT_SET_NO":999,"REV_AT_EPOCH":4077,"BSTAR":0.00093453443,"MEAN_MOTION_DOT":0.00027433,"MEAN_MOTION_DDOT":0},{"OBJECT_NAME":"COSMOS 2535 DEB","OBJECT_ID":"2019-039M","EPOCH":"2026-03-08T03:25:35.903424","MEAN_MOTION":15.28322551,"ECCENTRICITY":0.0014917,"INCLINATION":97.5619,"RA_OF_ASC_NODE":139.2722,"ARG_OF_PERICENTER":329.0964,"MEAN_ANOMALY":30.9396,"EPHEMERIS_TYPE":0,"CLASSIFICATION_TYPE":"U","NORAD_CAT_ID":44641,"ELEMENT_SET_NO":999,"REV_AT_EPOCH":35167,"BSTAR":0.0011539757,"MEAN_MOTION_DOT":0.0003196,"MEAN_MOTION_DDOT":0}]
